{
    "links": {
        "self": "http://www.neowsapp.com/rest/v1/neo/3869321?api_key=iIulBulltgU6a56xZRHN4H3l9WmuAYTsLGpBGhQ2"
    },
    "id": "3869321",
    "neo_reference_id": "3869321",
    "name": "(2019 SG5)",
    "designation": "2019 SG5",
    "nasa_jpl_url": "http://ssd.jpl.nasa.gov/sbdb.cgi?sstr=3869321",
    "absolute_magnitude_h": 23.3,
    "estimated_diameter": {
        "kilometers": {
            "estimated_diameter_min": 0.058150704,
            "estimated_diameter_max": 0.130028927
        },
        "meters": {
            "estimated_diameter_min": 58.1507039646,
            "estimated_diameter_max": 130.0289270043
        },
        "miles": {
            "estimated_diameter_min": 0.0361331611,
            "estimated_diameter_max": 0.0807962044
        },
        "feet": {
            "estimated_diameter_min": 190.7831555951,
            "estimated_diameter_max": 426.6041048727
        }
    },
    "is_potentially_hazardous_asteroid": false,
    "close_approach_data": [
        {
            "close_approach_date": "2019-10-05",
            "close_approach_date_full": "2019-Oct-05 20:14",
            "epoch_date_close_approach": 1570306440000,
            "relative_velocity": {
                "kilometers_per_second": "3.126796636",
                "kilometers_per_hour": "11256.467889614",
                "miles_per_hour": "6994.3313950771"
            },
            "miss_distance": {
                "astronomical": "0.2654296969",
                "lunar": "103.2521520941",
                "kilometers": "39707717.290985603",
                "miles": "24673231.4116752014"
            },
            "orbiting_body": "Earth"
        }
    ],
    "orbital_data": {
        "orbit_id": "6",
        "orbit_determination_date": "2019-11-05 06:05:02",
        "first_observation_date": "2019-09-25",
        "last_observation_date": "2019-11-03",
        "data_arc_in_days": 39,
        "observations_used": 32,
        "orbit_uncertainty": "7",
        "minimum_orbit_intersection": ".266018",
        "jupiter_tisserand_invariant": "3.457",
        "epoch_osculation": "2459000.5",
        "eccentricity": ".4477693764713261",
        "semi_major_axis": "2.287613091471668",
        "inclination": "4.568964679263569",
        "ascending_node_longitude": "33.35415076924414",
        "orbital_period": "1263.782353003334",
        "perihelion_distance": "1.263290003895756",
        "perihelion_argument": "339.9078800294412",
        "aphelion_distance": "3.31193617904758",
        "perihelion_time": "2458763.754703006264",
        "mean_anomaly": "67.43907027598785",
        "mean_motion": ".2848591762216592",
        "equinox": "J2000",
        "orbit_class": {
            "orbit_class_type": "AMO",
            "orbit_class_description": "Near-Earth asteroid orbits similar to that of 1221 Amor",
            "orbit_class_range": "1.017 AU < q (perihelion) < 1.3 AU"
        }
    },
    "is_sentry_object": false
}